Are you:,When did you first attend a Sheffield Eagles game?,Would you class yourself as:,Are You? ,How old are you? ,How would you describe yourself,Postcode,Latitude,Longitude
A player or member of club staff,2011- 2021,Someone who attends games home or away on a regular basis,Male,25-39,White,S70,53.5412012117922,-1.47491682777347
A current Sheffield Eagles fan who attends games,1984 - 1990,Someone who has a season ticket and attends all home games,Male,50-59,White,S2,53.3696017349643,-1.4478789745158
A current Sheffield Eagles fan who attends games,1991 - 2000,Someone who has a season ticket and attends all home games,Male,50-59,White,S2,53.3696017349643,-1.4478789745158
A current Sheffield Eagles fan who attends games,1984 - 1990,Someone who attends games home or away on a regular basis,Male,50-59,White,S70,53.5412012117922,-1.47491682777347
A current Sheffield Eagles fan who attends games,1991 - 2000,Someone who has a season ticket and attends all home games,Male,16-25,White,S5,53.4222641463879,-1.46330644676806
A current Sheffield Eagles fan who attends games,1984 - 1990,Someone who attends games home or away on a regular basis,Male,70 or older,White,YO15,54.0947577924152,-0.177331924151696
A current Sheffield Eagles fan who attends games,1984 - 1990,Someone who occasionally attends home games,Male,50-59,White,PE29,52.3321348294345,-0.178912746588696
A current Sheffield Eagles fan who attends games,2011- 2021,"season ticket holder- 2021, only matches @ Keepmoat",Male,60-69,White,S6,53.4029378722717,-1.51308651010509
A current Sheffield Eagles fan who attends games,1984 - 1990,Someone who has a season ticket and attends all home games,Male,50-59,White,S2,53.3696017349643,-1.4478789745158
A current Sheffield Eagles fan who attends games,1984 - 1990,Someone who has a season ticket and attends all home games,Male,70 or older,White,S11,53.3607688694992,-1.5078954491654
A current Sheffield Eagles fan who attends games,1991 - 2000,Someone who has a season ticket and attends all home games,Female,60-69,White,S26,53.3520526630037,-1.29096045787546
A sponsor of the club,1984 - 1990,Someone who attends games home or away on a regular basis,Male,60-69,White,S7,53.3551646986755,-1.49104566887417
A Sheffield Eagles fan who doesn't currently attend games but plans to in the future,1991 - 2000,Someone who doesn't attend games but follows the results,Female,40-49,White,S3,53.3872091007604,-1.4741900513308
A Sheffield Eagles fan who no longer attends games,1991 - 2000,Someone who occasionally attends home games,Male,50-59,White,BB4,53.703824628167,-2.2916974418778
A player or member of club staff,1984 - 1990,kitman,Male,60-69,White,S6,53.4029378722717,-1.51308651010509
A current Sheffield Eagles fan who attends games,1984 - 1990,Someone who has a season ticket and attends all home games,Female,40-49,White,S60,53.4119988231481,-1.35101599166667
A current Sheffield Eagles fan who attends games,2001 - 2010,Someone who attends games home or away on a regular basis,Female,16-25,White,S9,53.3981479577465,-1.41769494366197
A Sheffield Eagles fan who doesn't currently attend games but plans to in the future,1984 - 1990,Someone who used to attend games,Male,50-59,White,CM23,51.8723763052351,0.158256372670807
Former player and Academic who may be able to help,1984 - 1990,Former player with an interest in the Clubs development,Male,50-59,Other,DL8,54.2926294965398,-1.78474448269896
A current Sheffield Eagles fan who attends games,1984 - 1990,Someone who has a season ticket and attends all home games,Female,70 or older,White,S10,53.3767337218046,-1.51836540494092
A current Sheffield Eagles fan who attends games,1991 - 2000,Someone who has a season ticket and attends all home games,Male,50-59,White,S65,53.4362441409477,-1.31815274240583
A player or member of club staff,1984 - 1990,Someone who attends games home or away on a regular basis,Male,60-69,White,WF8,53.6864689727626,-1.30043799805447
A player or member of club staff,1984 - 1990,A current or former player,Male,40-49,White,,,
A current Sheffield Eagles fan who attends games,1991 - 2000,Someone who has a season ticket and attends all home games,Male,40-49,White,S74,53.5009725826923,-1.441330725
A current Sheffield Eagles fan who attends games,1991 - 2000,Someone who has a season ticket and attends all home games,Male,40-49,White,S12,53.3482196564885,-1.40645208091603
A current Sheffield Eagles fan who attends games,1984 - 1990,Someone who has a season ticket and attends all home games,Male,60-69,White,S6,53.4029378722717,-1.51308651010509
A current Sheffield Eagles fan who attends games,1984 - 1990,Someone who has a season ticket and attends all home games,Female,60-69,White,S35,53.4586070777027,-1.49845180518018
A current Sheffield Eagles fan who attends games,1984 - 1990,Someone who attends games home or away on a regular basis,Female,50-59,White,S20,53.3345935078864,-1.35222000630915
Former member of staff,2001 - 2010,Someone who occasionally attends home games,Male,40-49,White,S20,53.3345935078864,-1.35222000630915
A current Sheffield Eagles fan who attends games,1991 - 2000,Someone who used to attend games,Male,40-49,White,S4 ,53.4009353511706,-1.44965654180602
A player or member of club staff,2011- 2021,Staff member who attends games but would attend if didnâ€™t work for the club ,Female,25-39,White,,,
"I was involved with the club in the first season. I was a Director, ran the match day, edited the programme, began work on a development programme. I was also involved with the Alliance team and Development programme in the season prior to the merger.",1984 - 1990,A former administrator,Male,70 or older,White,YO31,53.9698881410736,-1.06443211111111
A current Sheffield Eagles fan who attends games,2001 - 2010,Someone who attends games home or away on a regular basis,Male,50-59,White,NG9,52.925914938575,-1.23826305712531
A current Sheffield Eagles fan who attends games,1991 - 2000,Someone who attends games home or away on a regular basis,Male,25-39,White,S12,53.3482196564885,-1.40645208091603
A player or member of club staff,2001 - 2010,Someone who attends games home or away on a regular basis,Male,25-39,White,S12,53.3482196564885,-1.40645208091603
A current Sheffield Eagles fan who attends games,2011- 2021,Someone who has a season ticket and attends all home games,Male,50-59,White,S26,53.3520526630037,-1.29096045787546
A player or member of club staff,2011- 2021,Someone who doesn't attend games but follows the results,Female,25-39,White,S26,53.3520526630037,-1.29096045787546
A player or member of club staff,1991 - 2000,Someone who attends games home or away on a regular basis,Female,25-39,White,,,
A player or member of club staff,2001 - 2010,Chaplain. Attend most games,Male,60-69,White,S11,53.3607688694992,-1.5078954491654
A player or member of club staff,2011- 2021,Club staff,Male,50-59,White,S70,53.5412012117922,-1.47491682777347
A Sheffield Eagles fan who no longer attends games,1984 - 1990,Someone who doesn't attend games but follows the results,Male,50-59,White,S35,53.4586070777027,-1.49845180518018
A current Sheffield Eagles fan who attends games,1984 - 1990,Someone who has a season ticket and attends all home games,Male,50-59,White,S8,53.3400855827506,-1.47767373310023
A Sheffield Eagles fan who no longer attends games,1991 - 2000,Someone who used to attend games,Male,40-49,Prefer not to say,DH1,54.7821670158251,-1.5655433564431
A Sheffield Eagles fan who no longer attends games,1991 - 2000,Local fan who now lives in New Zealand ,Male,25-39,White,S11,53.3607688694992,-1.5078954491654
A Sheffield Eagles fan who no longer attends games,1984 - 1990,Someone who used to attend games,Female,50-59,White,EH48,55.8989884517876,-3.66493174864572
A Sheffield Eagles fan who no longer attends games,1984 - 1990,Someone who doesn't attend games but follows the results,Female,40-49,White,S20,53.3345935078864,-1.35222000630915
A current Sheffield Eagles fan who attends games,1991 - 2000,Someone who attends games home or away on a regular basis,Male,25-39,White,S21,53.3120851013216,-1.33961028854626
Director,1984 - 1990,Someone who attends games home or away on a regular basis,Male,70 or older,White,OL4,53.5424057440305,-2.07348421776504
A current Sheffield Eagles fan who attends games,1991 - 2000,Someone who has a season ticket and attends all home games,Female,25-39,White,S2,53.3696017349643,-1.4478789745158
A Sheffield Eagles fan who doesn't currently attend games but plans to in the future,1991 - 2000,Used to attend games when lived in Sheffield. Hopefully start attending games again in 2022. ,Female,16-25,White,BD4,53.7763732288401,-1.71858455799373
A current Sheffield Eagles fan who attends games,1991 - 2000,Someone who attends games home or away on a regular basis,Male,25-39,White,LS6,53.8200829378531,-1.57075756045198
A Sheffield Eagles fan who doesn't currently attend games but plans to in the future,1991 - 2000,Someone who occasionally attends home games,Male,25-39,White,DN11,53.4486959042944,-1.08189314969325
A current Sheffield Eagles fan who attends games,1991 - 2000,Someone who attends games home or away on a regular basis,Male,60-69,White,S9,53.3981479577465,-1.41769494366197
A current Sheffield Eagles fan who attends games,1991 - 2000,Someone who has a season ticket and attends all home games,Male,50-59,White,S20,53.3345935078864,-1.35222000630915
A current Sheffield Eagles fan who attends games,1984 - 1990,Someone who attends games home or away on a regular basis,Female,50-59,White,S8,53.3400855827506,-1.47767373310023
A player or member of club staff,1984 - 1990,A current or former player,Male,50-59,White,LE15,52.6562793083183,-0.702098077757686
A current Sheffield Eagles fan who attends games,1984 - 1990,Someone who attends games home or away on a regular basis,Male,50-59,White,S9,53.3981479577465,-1.41769494366197
A current Sheffield Eagles fan who attends games,2001 - 2010,Someone who attends games home or away on a regular basis,Male,16-25,White,S13,53.364656582343,-1.38369538370119
A current Sheffield Eagles fan who attends games,1984 - 1990,Someone who attends games home or away on a regular basis,Female,70 or older,White,S8,53.3400855827506,-1.47767373310023
A player or member of club staff,,,Male,25-39,White,NG5,52.9973080534789,-1.14433694132918
A current Sheffield Eagles fan who attends games,2001 - 2010,Someone who attends games home or away on a regular basis,Male,16-25,White,S13,53.364656582343,-1.38369538370119
A Sheffield Eagles fan who doesn't currently attend games but plans to in the future,1984 - 1990,Someone who occasionally attends home games,Male,40-49,White,S62,53.4654282545156,-1.34783121018062
A current Sheffield Eagles fan who attends games,1984 - 1990,Someone who has a season ticket and attends all home games,Male,50-59,White,S13,53.364656582343,-1.38369538370119
A current Sheffield Eagles fan who attends games,1991 - 2000,Someone who has a season ticket and attends all home games,Male,60-69,White,S6,53.4029378722717,-1.51308651010509
A current Sheffield Eagles fan who attends games,2001 - 2010,Someone who attends games home or away on a regular basis,Male,16-25,White,S20,53.3345935078864,-1.35222000630915
A current Sheffield Eagles fan who attends games,1984 - 1990,Someone who has a season ticket and attends all home games,Male,40-49,White,LE12,52.7679132974521,-1.191111222293
None of the above but are interested in the project,2011- 2021,A fan from Australia,Male,60-69,White,3204,,
Someone who works for an organisation that currently works or could work in partnership with the club and the Foundation,1984 - 1990,Someone who doesn't attend games but follows the results,Male,60-69,White,YO51,54.089801226923,-1.39459774230769
A Sheffield Eagles fan who no longer attends games,1984 - 1990,Someone who doesn't attend games but follows the results,Male,70 or older,White,S17  ,53.3212638900804,-1.52904590080429
A current Sheffield Eagles fan who attends games,1984 - 1990,Someone who has a season ticket and attends all home games,Male,70 or older,White,DN8  ,53.6152939249492,-0.955319937119675
A current Sheffield Eagles fan who attends games,1991 - 2000,Someone who attends games home or away on a regular basis,Male,25-39,White,S6,53.4029378722717,-1.51308651010509
A current Sheffield Eagles fan who attends games,2001 - 2010,Someone who has a season ticket and attends all home games,,16-25,White,S20,53.3345935078864,-1.35222000630915
A current Sheffield Eagles fan who attends games,1991 - 2000,Someone who attends games home or away on a regular basis,Female,40-49,White,HD3,53.6536014204702,-1.83200933886584
Former player ,1984 - 1990,A current or former player,Male,60-69,White,WF10,53.7239207626582,-1.34774750316455
A current Sheffield Eagles fan who attends games,1984 - 1990,Someone who has a season ticket and attends all home games,Male,70 or older,White,S17  ,53.3212638900804,-1.52904590080429
A player or member of club staff,1984 - 1990,A current or former player,Male,50-59,White,S36  ,53.5058372473262,-1.61701614839572
A player or member of club staff,1984 - 1990,A current or former player,Male,50-59,White,S35  ,53.4586070777027,-1.49845180518018
A current Sheffield Eagles fan who attends games,2011- 2021,Someone who has a season ticket and attends all home games,Male,40-49,Asian / Asian British,S5,53.4222641463879,-1.46330644676806
None of the above but are interested in the project,1984 - 1990,A current or former player,Male,60-69,White,WF8 ,53.6864689727626,-1.30043799805447
A player or member of club staff,1984 - 1990,A current or former player,Male,60-69,White,HX2,53.7386029643494,-1.90658620409982
A Sheffield Eagles fan who no longer attends games,2011- 2021,Someone who doesn't attend games but follows the results,Male,25-39,White,,,
Ex player ,1984 - 1990,A current or former player,Male,50-59,White,WF8 ,53.6864689727626,-1.30043799805447
A player or member of club staff,2011- 2021,A current or former player,Male,25-39,White,S75  ,53.5627064526474,-1.52135271513796
Former player ,2011- 2021,A current or former player,Male,40-49,Other,S6 ,53.4029378722717,-1.51308651010509
Used to be a member of staff ,2011- 2021,Used to work for the Club,Female,40-49,White,S70 ,53.5412012117922,-1.47491682777347
Ex player ,1991 - 2000,A current or former player,Male,25-39,White,W5,51.5133347588584,-0.302268556102362
Ex player,2011- 2021,A current or former player,Male,25-39,White,WF10 ,53.7239207626582,-1.34774750316455
A player or member of club staff,1984 - 1990,A current or former player,Male,60-69,White,DN8  ,53.6152939249492,-0.955319937119675
Ex player,2011- 2021,A current or former player,Male,25-39,White,WF8,53.6864689727626,-1.30043799805447
Former player,2011- 2021,A current or former player,Male,40-49,White,WA3,53.4565333520477,-2.54799364795244
A player or member of club staff,1984 - 1990,A current or former player,Male,60-69,White,6004 - Perth Western Australia,,
A player or member of club staff,2001 - 2010,A current or former player,Male,25-39,Other,DN5,53.5384846701244,-1.17431927489627
A sponsor of the club,1991 - 2000,Someone who attends games home or away on a regular basis,Male,50-59,White,S18,53.2994739648829,-1.47440410033445
A current Sheffield Eagles fan who attends games,1984 - 1990,Someone who has a season ticket and attends all home games,Male,40-49,White,S13,53.364656582343,-1.38369538370119
A Sheffield Eagles fan who doesn't currently attend games but plans to in the future,1984 - 1990,Someone who plans to attend games from 2022,Female,50-59,White,S14,53.3460220765028,-1.44439153551913
Former player ,2001 - 2010,A current or former player,Male,40-49,White,WF4,53.6466385973101,-1.51929442325949
A sponsor of the club,1984 - 1990,Someone who has a season ticket and attends all home games,Male,70 or older,White,S26  ,53.3520526630037,-1.29096045787546
A player or member of club staff,1984 - 1990,Member of staff,Male,50-59,White,S8 ,53.3400855827506,-1.47767373310023
wheelchair rugby player,You plan to attend games from 2022,Someone who plans to attend games from 2022,Male,40-49,White,DE4,53.1268789549462,-1.5652728158668
,1991 - 2000,Someone who doesn't attend games but follows the results,Female,60-69,Black / African / Caribbean /Black British,YO26,53.976023817975,-1.18053647554039
A Sheffield Eagles fan who doesn't currently attend games but plans to in the future,1991 - 2000,Someone who plans to attend games from 2022,Male,60-69,White,S43,53.2674933225808,-1.33986800276497
A sponsor of the club,1984 - 1990,Someone who attends games home or away on a regular basis,Male,50-59,White,S36  ,53.5058372473262,-1.61701614839572
A current Sheffield Eagles fan who attends games,1991 - 2000,Someone who has a season ticket and attends all home games,Male,25-39,White,S11,53.3607688694992,-1.5078954491654
A current Sheffield Eagles fan who attends games,2001 - 2010,Someone who attends games home or away on a regular basis,Male,16-25,White,S26,53.3520526630037,-1.29096045787546
A current Sheffield Eagles fan who attends games,1991 - 2000,Someone who attends games home or away on a regular basis,Female,25-39,White,HD9  ,53.5805329916387,-1.79737410200669
A current Sheffield Eagles fan who attends games,2011- 2021,Someone who occasionally attends home games,Female,25-39,White,S12,53.3482196564885,-1.40645208091603
A Sheffield Eagles fan who doesn't currently attend games but plans to in the future,1991 - 2000,Someone who plans to attend games from 2022,Male,25-39,White,S11,53.3607688694992,-1.5078954491654
A Sheffield Eagles fan who no longer attends games,1984 - 1990,Someone who plans to attend games from 2022,Male,40-49,White,S60,53.4119988231481,-1.35101599166667
Former chairman of the club,1984 - 1990,Someone who attends games home or away on a regular basis,Male,50-59,White,HD9  ,53.5805329916387,-1.79737410200669
A Sheffield Eagles fan who no longer attends games,1984 - 1990,Someone who used to attend games,Male,50-59,White,PR2,53.7786646706148,-2.70684761534122
A current Sheffield Eagles fan who attends games,1991 - 2000,Someone who has a season ticket and attends all home games,Male,60-69,White,S8,53.3400855827506,-1.47767373310023
A current Sheffield Eagles fan who attends games,1984 - 1990,Someone who has a season ticket and attends all home games,Female,50-59,White,S8,53.3400855827506,-1.47767373310023
A Sheffield Eagles fan who no longer attends games,1984 - 1990,Someone who used to attend games,Male,50-59,Prefer not to say,95370,,
A current Sheffield Eagles fan who attends games,1991 - 2000,Someone who has a season ticket and attends all home games,Female,25-39,White,S7,53.3551646986755,-1.49104566887417
A current Sheffield Eagles fan who attends games,1984 - 1990,Someone who has a season ticket and attends all home games,Male,50-59,White,S62,53.4654282545156,-1.34783121018062
A current Sheffield Eagles fan who attends games,1984 - 1990,Someone who has a season ticket and attends all home games,Female,40-49,White,S9,53.3981479577465,-1.41769494366197
A former employee and Reserve Grade Player,2011- 2021,Someone who occasionally attends home games,Male,25-39,White,S7,53.3551646986755,-1.49104566887417
Ex Player ,1984 - 1990,A current or former player,Male,50-59,,,,
A current Sheffield Eagles fan who attends games,1991 - 2000,Someone who occasionally attends home games,Male,25-39,White,S75  ,53.5627064526474,-1.52135271513796
A current Sheffield Eagles fan who attends games,1991 - 2000,Someone who attends games home or away on a regular basis,Male,25-39,White,S74,53.5009725826923,-1.441330725
A Sheffield Eagles fan who doesn't currently attend games but plans to in the future,1991 - 2000,A current or former player,Male,25-39,White,S35,53.4586070777027,-1.49845180518018
A Sheffield Eagles fan who no longer attends games,1984 - 1990,Someone who used to attend games,Female,70 or older,White,We live in Gibraltar,,
A player or member of club staff,,A current or former player,Male,60-69,White,WF10,53.7239207626582,-1.34774750316455
A Sheffield Eagles fan who no longer attends games,1991 - 2000,A current or former player,Male,25-39,White,HU6,53.7810379620638,-0.371420945371776
A current Sheffield Eagles fan who attends games,1991 - 2000,Someone who has a season ticket and attends all home games,Male,60-69,White,S11,53.3607688694992,-1.5078954491654
A former player ,2001 - 2010,A current or former player,Male,25-39,White,S74,53.5009725826923,-1.441330725
A player or member of club staff,2001 - 2010,Someone who used to attend games,Male,25-39,Mixed / Multiple Ethnic Groups,S57,,
